[{"OBJECT_NAME":"STARLINK-30147","OBJECT_ID":"2023-113S","EPOCH":"2026-03-09T22:00:01.999584","MEAN_MOTION":15.26744246,"ECCENTRICITY":0.00013727,"INCLINATION":43.0009,"RA_OF_ASC_NODE":14.5565,"ARG_OF_PERICENTER":257.7385,"MEAN_ANOMALY":66.4463,"EPHEMERIS_TYPE":0,"CLASSIFICATION_TYPE":"U","NORAD_CAT_ID":57511,"ELEMENT_SET_NO":999,"REV_AT_EPOCH":563,"BSTAR":0.00039659737,"MEAN_MOTION_DOT":0.00010395,"MEAN_MOTION_DDOT":0},{"OBJECT_NAME":"OBJECT B","OBJECT_ID":"2024-153B","EPOCH":"2026-03-09T23:15:18.632160","MEAN_MOTION":15.30512917,"ECCENTRICITY":0.00113423,"INCLINATION":97.6622,"RA_OF_ASC_NODE":204.9195,"ARG_OF_PERICENTER":149.8438,"MEAN_ANOMALY":210.3457,"EPHEMERIS_TYPE":0,"CLASSIFICATION_TYPE":"U","NORAD_CAT_ID":60746,"ELEMENT_SET_NO":999,"REV_AT_EPOCH":8476,"BSTAR":0.00066193599,"MEAN_MOTION_DOT":0.00019515,"MEAN_MOTION_DDOT":0}]
